{
  "type": "FeatureCollection",
  "name": "bangalore-prevail-corridor",
  "features": [
    {
      "type": "Feature",
      "properties": {
        "name": "MG-Road-East-Spine",
        "lanes": 4,
        "speed_limit_mps": 16.7
      },
      "geometry": {
        "type": "LineString",
        "coordinates": [
          [
            77.585,
            12.98
          ],
          [
            77.5885,
            12.9785
          ],
          [
            77.591,
            12.9765
          ],
          [
            77.593,
            12.9745
          ],
          [
            77.5946,
            12.9716
          ],
          [
            77.5965,
            12.972
          ],
          [
            77.599,
            12.9735
          ],
          [
            77.6015,
            12.9745
          ],
          [
            77.604,
            12.9752
          ],
          [
            77.605,
            12.975
          ],
          [
            77.6065,
            12.9735
          ],
          [
            77.608,
            12.971
          ],
          [
            77.6095,
            12.9685
          ],
          [
            77.61,
            12.965
          ]
        ]
      }
    },
    {
      "type": "Feature",
      "properties": {
        "name": "North-Loop-Connector",
        "lanes": 2,
        "speed_limit_mps": 11.1
      },
      "geometry": {
        "type": "LineString",
        "coordinates": [
          [
            77.5946,
            12.9716
          ],
          [
            77.592,
            12.973
          ],
          [
            77.589,
            12.9755
          ],
          [
            77.5865,
            12.978
          ],
          [
            77.585,
            12.98
          ]
        ]
      }
    },
    {
      "type": "Feature",
      "properties": {
        "name": "East-South-Highway",
        "lanes": 3,
        "speed_limit_mps": 19.4
      },
      "geometry": {
        "type": "LineString",
        "coordinates": [
          [
            77.605,
            12.975
          ],
          [
            77.607,
            12.972
          ],
          [
            77.6085,
            12.969
          ],
          [
            77.61,
            12.965
          ]
        ]
      }
    },
    {
      "type": "Feature",
      "properties": {
        "name": "West-Boulevard",
        "lanes": 3,
        "speed_limit_mps": 13.9
      },
      "geometry": {
        "type": "LineString",
        "coordinates": [
          [
            77.585,
            12.98
          ],
          [
            77.585,
            12.976
          ],
          [
            77.585,
            12.972
          ],
          [
            77.585,
            12.968
          ]
        ]
      }
    },
    {
      "type": "Feature",
      "properties": {
        "name": "Central-Avenue",
        "lanes": 3,
        "speed_limit_mps": 13.9
      },
      "geometry": {
        "type": "LineString",
        "coordinates": [
          [
            77.589,
            12.9785
          ],
          [
            77.592,
            12.9785
          ],
          [
            77.595,
            12.9785
          ],
          [
            77.598,
            12.9785
          ]
        ]
      }
    },
    {
      "type": "Feature",
      "properties": {
        "name": "South-Ring",
        "lanes": 4,
        "speed_limit_mps": 16.7
      },
      "geometry": {
        "type": "LineString",
        "coordinates": [
          [
            77.585,
            12.968
          ],
          [
            77.59,
            12.968
          ],
          [
            77.595,
            12.968
          ],
          [
            77.6,
            12.968
          ],
          [
            77.61,
            12.965
          ]
        ]
      }
    },
    {
      "type": "Feature",
      "properties": {
        "name": "Cross-1",
        "lanes": 2,
        "speed_limit_mps": 11.1
      },
      "geometry": {
        "type": "LineString",
        "coordinates": [
          [
            77.58999999999999,
            12.9785
          ],
          [
            77.58999999999999,
            12.975
          ],
          [
            77.58999999999999,
            12.9716
          ],
          [
            77.58999999999999,
            12.968
          ]
        ]
      }
    },
    {
      "type": "Feature",
      "properties": {
        "name": "Cross-2",
        "lanes": 2,
        "speed_limit_mps": 11.1
      },
      "geometry": {
        "type": "LineString",
        "coordinates": [
          [
            77.595,
            12.9785
          ],
          [
            77.595,
            12.975
          ],
          [
            77.595,
            12.9716
          ],
          [
            77.595,
            12.968
          ]
        ]
      }
    },
    {
      "type": "Feature",
      "properties": {
        "name": "Cross-3",
        "lanes": 2,
        "speed_limit_mps": 11.1
      },
      "geometry": {
        "type": "LineString",
        "coordinates": [
          [
            77.6,
            12.9785
          ],
          [
            77.6,
            12.975
          ],
          [
            77.6,
            12.9716
          ],
          [
            77.6,
            12.968
          ]
        ]
      }
    },
    {
      "type": "Feature",
      "properties": {
        "name": "Cross-4",
        "lanes": 2,
        "speed_limit_mps": 11.1
      },
      "geometry": {
        "type": "LineString",
        "coordinates": [
          [
            77.60499999999999,
            12.9785
          ],
          [
            77.60499999999999,
            12.975
          ],
          [
            77.60499999999999,
            12.9716
          ],
          [
            77.60499999999999,
            12.968
          ]
        ]
      }
    },
    {
      "type": "Feature",
      "properties": {
        "name": "Cross-5",
        "lanes": 2,
        "speed_limit_mps": 11.1
      },
      "geometry": {
        "type": "LineString",
        "coordinates": [
          [
            77.61,
            12.9785
          ],
          [
            77.61,
            12.975
          ],
          [
            77.61,
            12.9716
          ],
          [
            77.61,
            12.968
          ]
        ]
      }
    },
    {
      "type": "Feature",
      "properties": {
        "name": "Tech-Park-Loop",
        "lanes": 2,
        "speed_limit_mps": 11.1
      },
      "geometry": {
        "type": "LineString",
        "coordinates": [
          [
            77.598,
            12.9785
          ],
          [
            77.6,
            12.977
          ],
          [
            77.602,
            12.9755
          ],
          [
            77.604,
            12.9752
          ]
        ]
      }
    },
    {
      "type": "Feature",
      "properties": {
        "name": "Market-Street",
        "lanes": 2,
        "speed_limit_mps": 9.7
      },
      "geometry": {
        "type": "LineString",
        "coordinates": [
          [
            77.591,
            12.9765
          ],
          [
            77.593,
            12.9755
          ],
          [
            77.595,
            12.9748
          ],
          [
            77.5965,
            12.972
          ]
        ]
      }
    }
  ]
}